STARLINK-36544          
1 67517U 26012AA  26048.50002314  .00072616  00000+0  25598-2 0  9994
2 67517  42.9998  68.3754 0001472 277.6325 114.7316 15.28372526  5838
STARLINK-36412          
1 67518U 26012AB  26048.50002314 -.02161174  00000+0 -78565-1 0  9998
2 67518  42.9999  68.1517 0000731 278.8384 206.7010 15.31096375  5775
STARLINK-36415          
1 67519U 26012AC  26048.50002314 -.01800060  00000+0 -63974-1 0  9990
2 67519  42.9996  68.0863 0001428 296.2208 215.6294 15.31736385  5987
STARLINK-36547          
1 67520U 26012AD  26048.50002314 -.03215796  00000+0 -11766+0 0  9990
2 67520  42.9996  68.1944 0001516 302.4974 165.5096 15.31157682  5775
STARLINK-36444          
1 67521U 26012AE  26048.50002314 -.01795732  00000+0 -63574-1 0  9998
2 67521  43.0000  68.2616 0001408 286.0713 155.4309 15.31850454  5771
HULIANWANG DIGUI-146    
1 67522U 26013A   26047.50660525 -.00000032  00000+0  11837-3 0  9990
2 67522  50.0080  73.2377 0001236 334.4561  25.6268 13.71823317  3923
HULIANWANG DIGUI-147    
1 67523U 26013B   26048.01405116 -.00000041  00000+0  10789-3 0  9996
2 67523  50.0051  71.2411 0001745  38.6205 321.4810 13.72092333  3996
HULIANWANG DIGUI-148    
1 67524U 26013C   26047.57166842 -.00000022  00000+0  12835-3 0  9990
2 67524  50.0090  72.9185 0000232 355.4694   4.6195 13.72180444  3939
HULIANWANG DIGUI-149    
1 67525U 26013D   26047.56696041 -.00000032  00000+0  11759-3 0  9994
2 67525  50.0085  72.8908 0000852  98.4045 261.6943 13.72336276  3930
HULIANWANG DIGUI-150    
1 67526U 26013E   26047.55896043 -.00000023  00000+0  12625-3 0  9991
2 67526  50.0046  72.8315 0000498  64.4392 295.6550 13.72667463  3952
HULIANWANG DIGUI-151    
1 67527U 26013F   26047.62279793 -.00000006  00000+0  14354-3 0  9999
2 67527  50.0091  72.5243 0000498 137.3593 222.7337 13.73319862  3944
HULIANWANG DIGUI-152    
1 67528U 26013G   26047.55661359 -.00000011  00000+0  13844-3 0  9994
2 67528  50.0039  72.8164 0001958 115.1030 245.0064 13.72913823  3934
